{"type": "FeatureCollection", "features": [{"type": "Feature", "properties": {"name": "Sishuwa Hospital", "type": "hospital"}, "geometry": {"type": "Point", "coordinates": [84.0660882, 28.1659898]}}, {"type": "Feature", "properties": {"name": "Annapurna Bal Tatha Mahila Hospital", "type": "hospital"}, "geometry": {"type": "Point", "coordinates": [84.0059428, 28.2031193]}}, {"type": "Feature", "properties": {"name": "Janapriya Hospital", "type": "hospital"}, "geometry": {"type": "Point", "coordinates": [83.9769179, 28.2066295]}}, {"type": "Feature", "properties": {"name": "Aashirbaad Medical", "type": "hospital"}, "geometry": {"type": "Point", "coordinates": [83.9840557, 28.2101557]}}, {"type": "Feature", "properties": {"type": "hospital"}, "geometry": {"type": "Point", "coordinates": [83.9731872, 28.1983349]}}, {"type": "Feature", "properties": {"name": "Machhapuchre Polyclinic", "type": "hospital"}, "geometry": {"type": "Point", "coordinates": [84.0567302, 28.16325]}}, {"type": "Feature", "properties": {"type": "hospital"}, "geometry": {"type": "Point", "coordinates": [83.988977, 28.2439723]}}, {"type": "Feature", "properties": {"type": "hospital"}, "geometry": {"type": "Point", "coordinates": [83.9978221, 28.2173152]}}, {"type": "Feature", "properties": {"name": "Fishtail Hospital & Research Centre", "type": "yes"}, "geometry": {"type": "Point", "coordinates": [83.9901417, 28.2258835]}}, {"type": "Feature", "properties": {"name": "Manipal Teaching Hospital", "type": "hospital"}, "geometry": {"type": "Point", "coordinates": [83.996356, 28.2364667]}}, {"type": "Feature", "properties": {"name": "Fewa City Hospital", "type": "hospital"}, "geometry": {"type": "Point", "coordinates": [83.98165, 28.2068121]}}, {"type": "Feature", "properties": {"name": "Padhma Nursing Homes", "type": "hospital"}, "geometry": {"type": "Point", "coordinates": [83.986554, 28.2196269]}}, {"type": "Feature", "properties": {"name": "Himalaya Eye Hospital", "type": "hospital"}, "geometry": {"type": "Point", "coordinates": [83.9774198, 28.1904272]}}, {"type": "Feature", "properties": {"name": "CIWEC Hospital", "type": "yes"}, "geometry": {"type": "Point", "coordinates": [83.9590162, 28.2092705]}}, {"type": "Feature", "properties": {"name": "Lake City Hospital and Critical Care", "type": "yes"}, "geometry": {"type": "Point", "coordinates": [83.9837423, 28.2208174]}}, {"type": "Feature", "properties": {"name": "Sparsh Aayurveda Hospital", "type": "yes"}, "geometry": {"type": "Point", "coordinates": [83.9847582, 28.2129386]}}, {"type": "Feature", "properties": {"name": "Regional Hospital", "type": "yes"}, "geometry": {"type": "Point", "coordinates": [83.9753478, 28.2141857]}}, {"type": "Feature", "properties": {"name": "Family Homiopathy Hospital", "type": "yes"}, "geometry": {"type": "Point", "coordinates": [83.9931328, 28.2051737]}}, {"type": "Feature", "properties": {"name": "Kaski Sewa Hospital and Research Center", "type": "yes"}, "geometry": {"type": "Point", "coordinates": [84.0007934, 28.2132105]}}, {"type": "Feature", "properties": {"name": "Galaxy Hospital", "type": "hospital"}, "geometry": {"type": "Point", "coordinates": [83.9972278, 28.2054126]}}, {"type": "Feature", "properties": {"name": "Charak Memorial Hospital", "type": "yes"}, "geometry": {"type": "Point", "coordinates": [83.9861013, 28.2107833]}}, {"type": "Feature", "properties": {"name": "Chauthe Hospital and Research Centre", "type": "yes"}, "geometry": {"type": "Point", "coordinates": [84.0234626, 28.1923338]}}, {"type": "Feature", "properties": {"name": "Sahara Hospital", "type": "yes"}, "geometry": {"type": "Point", "coordinates": [83.983226, 28.2314308]}}, {"type": "Feature", "properties": {"name": "Metro City Hospital", "type": "hospital"}, "geometry": {"type": "Point", "coordinates": [83.9816202, 28.2118599]}}, {"type": "Feature", "properties": {"name": "AB Care and Rehabilitation Center", "type": "hospital"}, "geometry": {"type": "Point", "coordinates": [83.9826805, 28.2384377]}}, {"type": "Feature", "properties": {"name": "BG Hospital and Research Center", "type": "hospital"}, "geometry": {"type": "Point", "coordinates": [84.0033192, 28.2157216]}}, {"type": "Feature", "properties": {"name": "Kantipur Institute of Health Science", "type": "hospital"}, "geometry": {"type": "Point", "coordinates": [83.9849394, 28.2134414]}}, {"type": "Feature", "properties": {"name": "Sai Archana Hospital", "type": "hospital"}, "geometry": {"type": "Point", "coordinates": [83.9979096, 28.2190422]}}, {"type": "Feature", "properties": {"name": "Aaragyodham Homiopathy Hospital", "type": "hospital"}, "geometry": {"type": "Point", "coordinates": [83.9934581, 28.2059191]}}, {"type": "Feature", "properties": {"name": "Pashchimanchal Community Hospital", "type": "hospital"}, "geometry": {"type": "Point", "coordinates": [83.9882843, 28.2088669]}}, {"type": "Feature", "properties": {"name": "Parkland Hospital", "type": "yes"}, "geometry": {"type": "Point", "coordinates": [84.0013636, 28.2044299]}}, {"type": "Feature", "properties": {"name": "OM Hospital Dignostic and Research Centre", "type": "hospital"}, "geometry": {"type": "Point", "coordinates": [83.9899346, 28.2228004]}}, {"type": "Feature", "properties": {"name": "Hemja Hospital and Research Center", "type": "hospital"}, "geometry": {"type": "Point", "coordinates": [83.9342565, 28.2776547]}}, {"type": "Feature", "properties": {"name": "Maternity Child Friendship Hospital", "type": "hospital"}, "geometry": {"type": "Point", "coordinates": [83.9819347, 28.2580723]}}, {"type": "Feature", "properties": {"name": "Lekhnath Community Lions Hospital", "type": "hospital"}, "geometry": {"type": "Point", "coordinates": [84.0797388, 28.1653723]}}, {"type": "Feature", "properties": {"name": "Green Pasture", "type": "hospital"}, "geometry": {"type": "Point", "coordinates": [83.9884392, 28.1920881]}}, {"type": "Feature", "properties": {"name": "Kaski Model Hospital", "type": "hospital"}, "geometry": {"type": "Point", "coordinates": [83.9867206, 28.2213854]}}, {"type": "Feature", "properties": {"name": "Pokhara Hospital and Research Centre", "type": "hospital"}, "geometry": {"type": "Point", "coordinates": [83.9923053, 28.2070241]}}, {"type": "Feature", "properties": {"name": "Spark B and D Hospital", "type": "hospital"}, "geometry": {"type": "Point", "coordinates": [83.9833593, 28.211947]}}, {"type": "Feature", "properties": {"name": "Namaste Hospital and Research Center", "type": "hospital"}, "geometry": {"type": "Point", "coordinates": [83.9720483, 28.1932171]}}, {"type": "Feature", "properties": {"name": "Lekhnath City Hospital", "type": "yes"}, "geometry": {"type": "Point", "coordinates": [84.0364953, 28.1841948]}}, {"type": "Feature", "properties": {"type": "hospital"}, "geometry": {"type": "Point", "coordinates": [83.9813544, 28.2067906]}}, {"type": "Feature", "properties": {"name": "Military Hospital", "type": "yes"}, "geometry": {"type": "Point", "coordinates": [83.994467, 28.2226913]}}, {"type": "Feature", "properties": {"type": "hospital"}, "geometry": {"type": "Point", "coordinates": [83.9969522, 28.213382]}}, {"type": "Feature", "properties": {"type": "yes"}, "geometry": {"type": "Point", "coordinates": [83.9977202, 28.2117783]}}, {"type": "Feature", "properties": {"name": "Western Regional Hospital", "type": "hospital"}, "geometry": {"type": "Point", "coordinates": [83.9980232, 28.2127047]}}, {"type": "Feature", "properties": {"name": "Manipal College of Medical Sciences", "type": "hospital"}, "geometry": {"type": "Point", "coordinates": [83.9867369, 28.2514433]}}, {"type": "Feature", "properties": {"name": "Gandaki Medical College and Teaching Hospital", "type": "hospital"}, "geometry": {"type": "Point", "coordinates": [83.9875024, 28.2110226]}}, {"type": "Feature", "properties": {"name": "Doctor's Clinic", "type": "clinic"}, "geometry": {"type": "Point", "coordinates": [83.9654401, 28.2070547]}}, {"type": "Feature", "properties": {"name": "Ortho Clinic", "type": "clinic"}, "geometry": {"type": "Point", "coordinates": [83.9835997, 28.2107109]}}, {"type": "Feature", "properties": {"name": "Geno Doctors Centre", "type": "clinic"}, "geometry": {"type": "Point", "coordinates": [83.9839674, 28.24343]}}, {"type": "Feature", "properties": {"name": "Ashish Medical Hall", "type": "clinic"}, "geometry": {"type": "Point", "coordinates": [83.9858903, 28.2335866]}}, {"type": "Feature", "properties": {"name": "Diabetic And Thyroid Upachar Kendra", "type": "clinic"}, "geometry": {"type": "Point", "coordinates": [83.9859952, 28.2149908]}}, {"type": "Feature", "properties": {"name": "Life Care Diagnostics", "type": "clinic"}, "geometry": {"type": "Point", "coordinates": [83.9860394, 28.2150913]}}, {"type": "Feature", "properties": {"name": "Meri Prajanan Swasthya Sewa", "type": "clinic"}, "geometry": {"type": "Point", "coordinates": [83.9839636, 28.2071158]}}, {"type": "Feature", "properties": {"name": "Pokhara Cancer Centre", "type": "clinic"}, "geometry": {"type": "Point", "coordinates": [83.9864291, 28.2169157]}}, {"type": "Feature", "properties": {"name": "Pokhara Healthy Home care", "type": "clinic"}, "geometry": {"type": "Point", "coordinates": [83.9864633, 28.2171639]}}, {"type": "Feature", "properties": {"name": "Rejuwa Skin Care Clinic", "type": "clinic"}, "geometry": {"type": "Point", "coordinates": [83.98647, 28.2171799]}}, {"type": "Feature", "properties": {"name": "Skin And Laser Centre", "type": "clinic"}, "geometry": {"type": "Point", "coordinates": [83.9866572, 28.2179495]}}, {"type": "Feature", "properties": {"name": "Global Medical Hall", "type": "clinic"}, "geometry": {"type": "Point", "coordinates": [83.9841069, 28.2433483]}}, {"type": "Feature", "properties": {"name": "Pokhara Diabetes and Thyroid", "type": "clinic"}, "geometry": {"type": "Point", "coordinates": [83.9868459, 28.2115233]}}, {"type": "Feature", "properties": {"name": "Advanced Poly Clinic", "type": "clinic"}, "geometry": {"type": "Point", "coordinates": [83.9853393, 28.2137053]}}, {"type": "Feature", "properties": {"name": "Brighter Clinic", "type": "clinic"}, "geometry": {"type": "Point", "coordinates": [83.987605, 28.2397716]}}, {"type": "Feature", "properties": {"name": "International Medicare and Assistance Centre", "type": "clinic"}, "geometry": {"type": "Point", "coordinates": [83.9649744, 28.2110532]}}, {"type": "Feature", "properties": {"name": "Shrijana Medical Swastha Clinic", "type": "clinic"}, "geometry": {"type": "Point", "coordinates": [83.9727979, 28.261071]}}, {"type": "Feature", "properties": {"type": "clinic"}, "geometry": {"type": "Point", "coordinates": [83.9838932, 28.2138299]}}, {"type": "Feature", "properties": {"name": "Shardikhola Polyclinic", "type": "clinic"}, "geometry": {"type": "Point", "coordinates": [83.9888073, 28.2433386]}}, {"type": "Feature", "properties": {"name": "Gau Ghar Clinic", "type": "clinic"}, "geometry": {"type": "Point", "coordinates": [83.953617, 28.279375]}}, {"type": "Feature", "properties": {"name": "Kahukhola Poli Clinic", "type": "clinic"}, "geometry": {"type": "Point", "coordinates": [84.0186275, 28.2159314]}}, {"type": "Feature", "properties": {"name": "Pokhara Healthy Homes", "type": "clinic"}, "geometry": {"type": "Point", "coordinates": [83.9886462, 28.2434124]}}, {"type": "Feature", "properties": {"name": "Sahara International Fertilty Centre ", "type": "clinic"}, "geometry": {"type": "Point", "coordinates": [83.9800511, 28.2251233]}}, {"type": "Feature", "properties": {"name": "Nidan Aayurbed Clinic", "type": "clinic"}, "geometry": {"type": "Point", "coordinates": [83.9822368, 28.2319723]}}, {"type": "Feature", "properties": {"name": "Dun-sel Clinic", "type": "clinic"}, "geometry": {"type": "Point", "coordinates": [83.9572236, 28.2622624]}}, {"type": "Feature", "properties": {"name": "Aarogya Bhawan Health Care Home", "type": "clinic"}, "geometry": {"type": "Point", "coordinates": [83.9701876, 28.2627601]}}, {"type": "Feature", "properties": {"name": "Kathmandu Clinic Of Cosmetic Surgery", "type": "clinic"}, "geometry": {"type": "Point", "coordinates": [83.9856961, 28.2134644]}}, {"type": "Feature", "properties": {"name": "Mamata Polyclinic ", "type": "clinic"}, "geometry": {"type": "Point", "coordinates": [84.0685261, 28.1634077]}}, {"type": "Feature", "properties": {"name": "Siddartha Pathology Clinic", "type": "clinic"}, "geometry": {"type": "Point", "coordinates": [83.9860316, 28.2182516]}}, {"type": "Feature", "properties": {"name": "Pancham Aayurbed Clinic", "type": "clinic"}, "geometry": {"type": "Point", "coordinates": [83.9932173, 28.2062034]}}, {"type": "Feature", "properties": {"name": "Jyoti Ankha Clinic and Chasma Pasal", "type": "clinic"}, "geometry": {"type": "Point", "coordinates": [83.9885816, 28.2424875]}}, {"type": "Feature", "properties": {"name": "Rupa Swasthya Clinic", "type": "clinic"}, "geometry": {"type": "Point", "coordinates": [84.0575162, 28.1630751]}}, {"type": "Feature", "properties": {"name": "Diwa Swastya Clinic", "type": "clinic"}, "geometry": {"type": "Point", "coordinates": [84.0120821, 28.2038818]}}, {"type": "Feature", "properties": {"name": "Pokhara Super Speciality Health Clinic", "type": "clinic"}, "geometry": {"type": "Point", "coordinates": [83.9849047, 28.2114775]}}, {"type": "Feature", "properties": {"name": "Magic Medico Concern", "type": "clinic"}, "geometry": {"type": "Point", "coordinates": [83.9745301, 28.2058021]}}, {"type": "Feature", "properties": {"name": "Lekhnath City Polyclinic", "type": "clinic"}, "geometry": {"type": "Point", "coordinates": [84.0610401, 28.1552198]}}, {"type": "Feature", "properties": {"name": "Padmashree Homeo Clinic", "type": "clinic"}, "geometry": {"type": "Point", "coordinates": [83.986655, 28.2179173]}}, {"type": "Feature", "properties": {"name": "Bastola Medical Hall", "type": "clinic"}, "geometry": {"type": "Point", "coordinates": [83.936195, 28.2783361]}}, {"type": "Feature", "properties": {"name": "Ratna Medical Hall", "type": "clinic"}, "geometry": {"type": "Point", "coordinates": [83.9222364, 28.2834135]}}, {"type": "Feature", "properties": {"name": "Diamond Medical Hall", "type": "clinic"}, "geometry": {"type": "Point", "coordinates": [83.9541775, 28.2894808]}}, {"type": "Feature", "properties": {"name": "Gandaki Gastro Liver and Endoscopy Clinic", "type": "clinic"}, "geometry": {"type": "Point", "coordinates": [83.9858128, 28.2141522]}}, {"type": "Feature", "properties": {"name": "Himalaya Polyclinic & Diagnostic Centre", "type": "clinic"}, "geometry": {"type": "Point", "coordinates": [83.9797794, 28.2246334]}}, {"type": "Feature", "properties": {"name": "Safal Skin Care & Laser Clinic", "type": "clinic"}, "geometry": {"type": "Point", "coordinates": [83.9847768, 28.225173]}}, {"type": "Feature", "properties": {"name": "Siddhartha Health Care ", "type": "clinic"}, "geometry": {"type": "Point", "coordinates": [83.984602, 28.2242783]}}, {"type": "Feature", "properties": {"name": "Hair Fixing Nepal", "type": "clinic_hair"}, "geometry": {"type": "Point", "coordinates": [83.9881567, 28.226749]}}, {"type": "Feature", "properties": {"name": "Manisona Health Care ", "type": "clinic"}, "geometry": {"type": "Point", "coordinates": [83.9907215, 28.2291974]}}, {"type": "Feature", "properties": {"name": "Healthy Home Fitness Clinic", "type": "clinic"}, "geometry": {"type": "Point", "coordinates": [83.9859525, 28.2147654]}}, {"type": "Feature", "properties": {"name": "Kayakalpa Diet Clinic", "type": "clinic"}, "geometry": {"type": "Point", "coordinates": [83.9881069, 28.2214638]}}, {"type": "Feature", "properties": {"name": "Hemja Policlinic", "type": "clinic"}, "geometry": {"type": "Point", "coordinates": [83.9362878, 28.2776599]}}, {"type": "Feature", "properties": {"name": "Pokhara Neuro Spine & ENT Centre", "type": "clinic"}, "geometry": {"type": "Point", "coordinates": [83.9879166, 28.2175984]}}, {"type": "Feature", "properties": {"name": "Mata Manakamana Aayurveda Clinic", "type": "clinic"}, "geometry": {"type": "Point", "coordinates": [83.9908726, 28.219589]}}, {"type": "Feature", "properties": {"name": "Haribasu Neuro Ortho Physiotherapy Clinic", "type": "clinic"}, "geometry": {"type": "Point", "coordinates": [83.9887643, 28.2127539]}}, {"type": "Feature", "properties": {"name": "Gandaki Imaging & Diagnostic Center", "type": "clinic"}, "geometry": {"type": "Point", "coordinates": [83.991013, 28.2230574]}}, {"type": "Feature", "properties": {"name": "Gastro Care", "type": "clinic"}, "geometry": {"type": "Point", "coordinates": [83.9845036, 28.20798]}}, {"type": "Feature", "properties": {"name": "Dipendra Medical Hall", "type": "clinic"}, "geometry": {"type": "Point", "coordinates": [83.9833901, 28.2323463]}}, {"type": "Feature", "properties": {"name": "Dolphin Dental Care", "type": "clinic"}, "geometry": {"type": "Point", "coordinates": [83.9846573, 28.2116302]}}, {"type": "Feature", "properties": {"name": "Marie Stopes Nepal", "type": "clinic"}, "geometry": {"type": "Point", "coordinates": [83.9836513, 28.2106696]}}, {"type": "Feature", "properties": {"name": "United Reference Laboratory", "type": "clinic"}, "geometry": {"type": "Point", "coordinates": [83.9847725, 28.2111015]}}, {"type": "Feature", "properties": {"name": "Sahi Medical Hall", "type": "clinic"}, "geometry": {"type": "Point", "coordinates": [84.0124914, 28.214203]}}, {"type": "Feature", "properties": {"name": "Kuwan Medical", "type": "clinic"}, "geometry": {"type": "Point", "coordinates": [84.0114765, 28.2103676]}}, {"type": "Feature", "properties": {"name": "New Gandaki Pathology Service", "type": "clinic"}, "geometry": {"type": "Point", "coordinates": [84.0025599, 28.2169819]}}, {"type": "Feature", "properties": {"name": "Sai Ram Medical Hall", "type": "clinic"}, "geometry": {"type": "Point", "coordinates": [83.9627109, 28.2574297]}}, {"type": "Feature", "properties": {"name": "Lakecity Ayurved & Gandaki Physiotherapy Centre", "type": "clinic"}, "geometry": {"type": "Point", "coordinates": [84.0593056, 28.1627934]}}, {"type": "Feature", "properties": {"type": "clinic"}, "geometry": {"type": "Point", "coordinates": [83.9440582, 28.2722954]}}, {"type": "Feature", "properties": {"type": "clinic"}, "geometry": {"type": "Point", "coordinates": [83.9986657, 28.2023429]}}, {"type": "Feature", "properties": {"type": "clinic"}, "geometry": {"type": "Point", "coordinates": [83.9646898, 28.2044916]}}, {"type": "Feature", "properties": {"name": "Madibesi BHCC", "type": "clinic"}, "geometry": {"type": "Point", "coordinates": [84.0772413, 28.2434607]}}, {"type": "Feature", "properties": {"name": "Chhachowk BHCC", "type": "clinic"}, "geometry": {"type": "Point", "coordinates": [84.0714635, 28.2709793]}}, {"type": "Feature", "properties": {"name": "Chitepani Health Care Center", "type": "clinic"}, "geometry": {"type": "Point", "coordinates": [84.0796073, 28.2222535]}}, {"type": "Feature", "properties": {"name": "Ghyamrang Community Health Care Unit", "type": "clinic"}, "geometry": {"type": "Point", "coordinates": [84.0702546, 28.2789739]}}, {"type": "Feature", "properties": {"name": "Nepal Family Planning Office", "type": "clinic"}, "geometry": {"type": "Point", "coordinates": [84.0019638, 28.2096096]}}, {"type": "Feature", "properties": {"name": "Sardi Khola Polyclinic", "type": "clinic"}, "geometry": {"type": "Point", "coordinates": [83.9877724, 28.242155]}}, {"type": "Feature", "properties": {"name": "Tulsi Clinic", "type": "yes"}, "geometry": {"type": "Point", "coordinates": [83.992993, 28.2086809]}}, {"type": "Feature", "properties": {"name": "Pokhara Clinic", "type": "yes"}, "geometry": {"type": "Point", "coordinates": [83.9912265, 28.2250308]}}, {"type": "Feature", "properties": {"name": "Pokhara Medical Hall", "type": "yes"}, "geometry": {"type": "Point", "coordinates": [83.9912888, 28.225464]}}, {"type": "Feature", "properties": {"name": "Medha Cardiac Care and Diagnostic Center", "type": "clinic"}, "geometry": {"type": "Point", "coordinates": [83.9898099, 28.2169756]}}, {"type": "Feature", "properties": {"name": "Yuni Chinese Acupuncture Centre", "type": "clinic"}, "geometry": {"type": "Point", "coordinates": [83.9747445, 28.2132893]}}, {"type": "Feature", "properties": {"name": "Skin, STD and Laser Clinic", "type": "clinic"}, "geometry": {"type": "Point", "coordinates": [83.9848201, 28.225412]}}, {"type": "Feature", "properties": {"name": "Lion Hospital", "type": "yes"}, "geometry": {"type": "Point", "coordinates": [83.9795582, 28.2236967]}}, {"type": "Feature", "properties": {"name": "Prakriti Ayurbed Bhawan", "type": "yes"}, "geometry": {"type": "Point", "coordinates": [83.990226, 28.2229316]}}, {"type": "Feature", "properties": {"name": "\u0935\u093f\u092d\u0942\u0924\u093f \u0939\u0947\u0932\u094d\u0925 \u0915\u0947\u092f\u0930 \u092a\u094d\u0930\u093e. \u0932\u0940.", "type": "yes"}, "geometry": {"type": "Point", "coordinates": [83.9705033, 28.1965399]}}, {"type": "Feature", "properties": {"name": "Sunrise Optical House", "type": "yes"}, "geometry": {"type": "Point", "coordinates": [83.9834545, 28.2433446]}}, {"type": "Feature", "properties": {"name": "The Child Specialist's Clinic", "type": "yes"}, "geometry": {"type": "Point", "coordinates": [83.9770975, 28.2067079]}}, {"type": "Feature", "properties": {"name": "Primary Health Care Clinic", "type": "yes"}, "geometry": {"type": "Point", "coordinates": [83.9565597, 28.1863841]}}, {"type": "Feature", "properties": {"name": "Sapana Ayurbed Hospital", "type": "clinic"}, "geometry": {"type": "Point", "coordinates": [83.9901787, 28.2223258]}}, {"type": "Feature", "properties": {"name": "Medical", "type": "yes"}, "geometry": {"type": "Point", "coordinates": [83.9959006, 28.1859728]}}, {"type": "Feature", "properties": {"name": "Annapurna Samudaika Swasthya Kendra", "type": "clinic"}, "geometry": {"type": "Point", "coordinates": [84.0413476, 28.1466589]}}, {"type": "Feature", "properties": {"name": "rakhi health post", "type": "clinic"}, "geometry": {"type": "Point", "coordinates": [84.0448157, 28.2057475]}}, {"type": "Feature", "properties": {"type": "yes"}, "geometry": {"type": "Point", "coordinates": [83.982267, 28.1834111]}}, {"type": "Feature", "properties": {"name": "Fewa Secondary Boarding School", "type": "school"}, "geometry": {"type": "Point", "coordinates": [83.9581541, 28.2143012]}}, {"type": "Feature", "properties": {"name": "Buds Education Foundation", "type": "school"}, "geometry": {"type": "Point", "coordinates": [83.9610386, 28.2137418]}}, {"type": "Feature", "properties": {"name": "Vindhyaswori Adarsha Boarding School", "type": "school"}, "geometry": {"type": "Point", "coordinates": [83.9856405, 28.2361436]}}, {"type": "Feature", "properties": {"name": "Sakar Academy", "type": "school"}, "geometry": {"type": "Point", "coordinates": [83.9713961, 28.2008131]}}, {"type": "Feature", "properties": {"name": "SOS Children's Village", "type": "school"}, "geometry": {"type": "Point", "coordinates": [83.9570404, 28.1868009]}}, {"type": "Feature", "properties": {"name": "Astha Driving Institute", "type": "driving_school"}, "geometry": {"type": "Point", "coordinates": [83.9888245, 28.2420203]}}, {"type": "Feature", "properties": {"name": "Dahal Driving", "type": "driving_school"}, "geometry": {"type": "Point", "coordinates": [83.9889208, 28.2411405]}}, {"type": "Feature", "properties": {"name": "Manish Driving Institute", "type": "driving_school"}, "geometry": {"type": "Point", "coordinates": [83.9950436, 28.2063266]}}, {"type": "Feature", "properties": {"name": "Gurans Language Institute", "type": "language_school"}, "geometry": {"type": "Point", "coordinates": [83.9884179, 28.2207127]}}, {"type": "Feature", "properties": {"name": "Barahi Driving School", "type": "driving_school"}, "geometry": {"type": "Point", "coordinates": [83.9850611, 28.213059]}}, {"type": "Feature", "properties": {"name": "Dhuwarkot Basic School", "type": "school"}, "geometry": {"type": "Point", "coordinates": [83.9323208, 28.1453302]}}, {"type": "Feature", "properties": {"name": "Gupteshwar Mahadev Bed Bigyan Pathsala", "type": "school"}, "geometry": {"type": "Point", "coordinates": [83.9575608, 28.1893033]}}, {"type": "Feature", "properties": {"name": "Janata Basic school", "type": "school"}, "geometry": {"type": "Point", "coordinates": [83.9960935, 28.2889448]}}, {"type": "Feature", "properties": {"name": "Shiveshwori Basic school", "type": "school"}, "geometry": {"type": "Point", "coordinates": [83.966439, 28.2994309]}}, {"type": "Feature", "properties": {"name": "Bijaya Basic School", "type": "school"}, "geometry": {"type": "Point", "coordinates": [83.9068002, 28.2550595]}}, {"type": "Feature", "properties": {"name": "Sita Basic School", "type": "school"}, "geometry": {"type": "Point", "coordinates": [84.0365257, 28.2709151]}}, {"type": "Feature", "properties": {"name": "Himalaya Ma V", "type": "school"}, "geometry": {"type": "Point", "coordinates": [84.0422078, 28.271816]}}, {"type": "Feature", "properties": {"name": "Saraswati Birmaya Basic School", "type": "school"}, "geometry": {"type": "Point", "coordinates": [84.0500913, 28.2690621]}}, {"type": "Feature", "properties": {"name": "Advance Driving Institute", "type": "driving_school"}, "geometry": {"type": "Point", "coordinates": [83.9962, 28.20425]}}, {"type": "Feature", "properties": {"name": "Namaste Driving Institute", "type": "driving_school"}, "geometry": {"type": "Point", "coordinates": [83.9935, 28.2066622]}}, {"type": "Feature", "properties": {"name": "Rai Moter Driving School", "type": "driving_school"}, "geometry": {"type": "Point", "coordinates": [83.9938541, 28.2065508]}}, {"type": "Feature", "properties": {"name": "Three Star Driving Institute", "type": "driving_school"}, "geometry": {"type": "Point", "coordinates": [83.9823045, 28.2321274]}}, {"type": "Feature", "properties": {"name": "Annapurna Higher Secondary School", "type": "school"}, "geometry": {"type": "Point", "coordinates": [84.0009499, 28.2721279]}}, {"type": "Feature", "properties": {"name": "Syanjali Driving School and Vehicle Pre-test Center", "type": "driving_school"}, "geometry": {"type": "Point", "coordinates": [83.9678962, 28.1914019]}}, {"type": "Feature", "properties": {"name": "Gupteshwor Driving Institute", "type": "driving_school"}, "geometry": {"type": "Point", "coordinates": [83.9690215, 28.1917146]}}, {"type": "Feature", "properties": {"name": "Hamro Pokhara Driving Institute", "type": "driving_school"}, "geometry": {"type": "Point", "coordinates": [83.96864, 28.2138119]}}, {"type": "Feature", "properties": {"name": "Pokhara Academy", "type": "school"}, "geometry": {"type": "Point", "coordinates": [83.9872772, 28.2259193]}}, {"type": "Feature", "properties": {"name": "Sima Academy", "type": "school"}, "geometry": {"type": "Point", "coordinates": [83.9635398, 28.1889256]}}, {"type": "Feature", "properties": {"name": "Puspa perfect driving school", "type": "driving_school"}, "geometry": {"type": "Point", "coordinates": [84.0508654, 28.1737442]}}, {"type": "Feature", "properties": {"name": "Narayani Driving School", "type": "driving_school"}, "geometry": {"type": "Point", "coordinates": [83.9871515, 28.2120365]}}, {"type": "Feature", "properties": {"name": "Poudel Driving School", "type": "driving_school"}, "geometry": {"type": "Point", "coordinates": [83.9892468, 28.216271]}}, {"type": "Feature", "properties": {"name": "Annapurana Driving Institute", "type": "driving_school"}, "geometry": {"type": "Point", "coordinates": [83.9894349, 28.2167853]}}, {"type": "Feature", "properties": {"name": "Hello Driving Institute", "type": "driving_school"}, "geometry": {"type": "Point", "coordinates": [83.9830263, 28.2057987]}}, {"type": "Feature", "properties": {"name": "New Driving Institute", "type": "driving_school"}, "geometry": {"type": "Point", "coordinates": [83.9887309, 28.2089147]}}, {"type": "Feature", "properties": {"name": "Bhaktapur Motor Driving Pvt Ltd", "type": "driving_school"}, "geometry": {"type": "Point", "coordinates": [83.988792, 28.2090143]}}, {"type": "Feature", "properties": {"name": "Patnyari Basic School", "type": "school"}, "geometry": {"type": "Point", "coordinates": [84.0596685, 28.1489093]}}, {"type": "Feature", "properties": {"name": "Bal Sudhar Griha", "type": "school"}, "geometry": {"type": "Point", "coordinates": [83.9563099, 28.244216]}}, {"type": "Feature", "properties": {"name": "Karma Siddha Parampara Dhamachakra Gumba", "type": "school"}, "geometry": {"type": "Point", "coordinates": [84.0069835, 28.2169411]}}, {"type": "Feature", "properties": {"name": "Lamjung Driving School", "type": "driving_school"}, "geometry": {"type": "Point", "coordinates": [84.0019798, 28.2047804]}}, {"type": "Feature", "properties": {"name": "The Dream School", "type": "school"}, "geometry": {"type": "Point", "coordinates": [84.0188616, 28.1589863]}}, {"type": "Feature", "properties": {"type": "driving_school"}, "geometry": {"type": "Point", "coordinates": [83.980533, 28.2367656]}}, {"type": "Feature", "properties": {"name": "rainbow multipurpose ground", "type": "school"}, "geometry": {"type": "Point", "coordinates": [83.9954979, 28.1945185]}}, {"type": "Feature", "properties": {"name": "SK Dance School", "type": "school"}, "geometry": {"type": "Point", "coordinates": [83.9752804, 28.2057171]}}, {"type": "Feature", "properties": {"name": "Hillside English Borading School", "type": "school"}, "geometry": {"type": "Point", "coordinates": [83.972616, 28.2224334]}}, {"type": "Feature", "properties": {"name": "Gyan Sagar Academy", "type": "school"}, "geometry": {"type": "Point", "coordinates": [83.9296303, 28.2778422]}}, {"type": "Feature", "properties": {"name": "Aadharbhut Driving School", "type": "driving_school"}, "geometry": {"type": "Point", "coordinates": [83.9737265, 28.2257612]}}, {"type": "Feature", "properties": {"type": "driving_school"}, "geometry": {"type": "Point", "coordinates": [83.9898605, 28.2104937]}}, {"type": "Feature", "properties": {"name": "Manakamana Boarding School", "type": "school"}, "geometry": {"type": "Point", "coordinates": [83.9954287, 28.2316686]}}, {"type": "Feature", "properties": {"type": "school"}, "geometry": {"type": "Point", "coordinates": [83.9717088, 28.2111347]}}, {"type": "Feature", "properties": {"name": "Pokhara Valley School", "type": "school"}, "geometry": {"type": "Point", "coordinates": [83.9659376, 28.1909758]}}, {"type": "Feature", "properties": {"name": "Home Tuition Center", "type": "prep_school"}, "geometry": {"type": "Point", "coordinates": [83.976079, 28.1931526]}}, {"type": "Feature", "properties": {"name": "Shree Ajambari Mahila Sip Bikas Talim Kendra", "type": "prep_school"}, "geometry": {"type": "Point", "coordinates": [83.9773191, 28.1937905]}}, {"type": "Feature", "properties": {"name": "Hello Driving Institute", "type": "driving_school"}, "geometry": {"type": "Point", "coordinates": [83.9830227, 28.2061615]}}, {"type": "Feature", "properties": {"name": "Shree Bhume Basic School, Thak", "type": "school"}, "geometry": {"type": "Point", "coordinates": [84.0691437, 28.2966928]}}, {"type": "Feature", "properties": {"name": "Shree Baraha Basic School, Melbot", "type": "school"}, "geometry": {"type": "Point", "coordinates": [84.0670925, 28.2798241]}}, {"type": "Feature", "properties": {"name": "Shree Dhanubas Kalika Secondary School", "type": "school"}, "geometry": {"type": "Point", "coordinates": [84.0715366, 28.2686864]}}, {"type": "Feature", "properties": {"name": "Shree Sildu Basic School, Thak Gaun", "type": "school"}, "geometry": {"type": "Point", "coordinates": [84.0706295, 28.2859046]}}, {"type": "Feature", "properties": {"name": "Kalika Basic School, Chhahawk", "type": "school"}, "geometry": {"type": "Point", "coordinates": [84.0684515, 28.2599278]}}, {"type": "Feature", "properties": {"name": "SOS Hermann Gmeiner English Boarding School", "type": "school"}, "geometry": {"type": "Point", "coordinates": [83.9874136, 28.2011931]}}, {"type": "Feature", "properties": {"name": "Tal Barahi Ma V", "type": "school"}, "geometry": {"type": "Point", "coordinates": [83.9622883, 28.2112998]}}, {"type": "Feature", "properties": {"name": "Mount annapurna campus", "type": "school"}, "geometry": {"type": "Point", "coordinates": [83.9805336, 28.224153]}}, {"type": "Feature", "properties": {"name": "Nilgiri Boarding School", "type": "school"}, "geometry": {"type": "Point", "coordinates": [83.9843009, 28.2250194]}}, {"type": "Feature", "properties": {"name": "Kumudini Homes", "type": "school"}, "geometry": {"type": "Point", "coordinates": [83.9885443, 28.2271813]}}, {"type": "Feature", "properties": {"name": "Balmandir Ma V", "type": "school"}, "geometry": {"type": "Point", "coordinates": [83.9906898, 28.2335968]}}, {"type": "Feature", "properties": {"name": "Tarapunja Education Academy", "type": "school"}, "geometry": {"type": "Point", "coordinates": [83.9872371, 28.2356574]}}, {"type": "Feature", "properties": {"name": "Mt. Annapurna Higher Secondary School", "type": "school"}, "geometry": {"type": "Point", "coordinates": [83.9860458, 28.2312911]}}, {"type": "Feature", "properties": {"name": "Barahi Ma V", "type": "school"}, "geometry": {"type": "Point", "coordinates": [83.9760074, 28.2181698]}}, {"type": "Feature", "properties": {"name": "Indra Rajya Laxmi Ma V", "type": "school"}, "geometry": {"type": "Point", "coordinates": [83.9734903, 28.2615567]}}, {"type": "Feature", "properties": {"name": "Amar Singh Ma V", "type": "school"}, "geometry": {"type": "Point", "coordinates": [84.0014333, 28.2079001]}}, {"type": "Feature", "properties": {"name": "Bhaskar Memorial School", "type": "school"}, "geometry": {"type": "Point", "coordinates": [83.9968396, 28.2274915]}}, {"type": "Feature", "properties": {"name": "Co-Ordinator Academy", "type": "school"}, "geometry": {"type": "Point", "coordinates": [83.9965354, 28.2327894]}}, {"type": "Feature", "properties": {"name": "Global Collegiate Higher Sceondary School", "type": "school"}, "geometry": {"type": "Point", "coordinates": [83.999273, 28.2175615]}}, {"type": "Feature", "properties": {"name": "Sidda Ma V", "type": "school"}, "geometry": {"type": "Point", "coordinates": [83.9994124, 28.1906154]}}, {"type": "Feature", "properties": {"name": "Rameshwori Ma V", "type": "school"}, "geometry": {"type": "Point", "coordinates": [84.0230022, 28.1773646]}}, {"type": "Feature", "properties": {"name": "Bhadrakali Ma V", "type": "school"}, "geometry": {"type": "Point", "coordinates": [84.0116599, 28.2136066]}}, {"type": "Feature", "properties": {"name": "Gaurishankar Ma V", "type": "school"}, "geometry": {"type": "Point", "coordinates": [83.939663, 28.2785995]}}, {"type": "Feature", "properties": {"name": "Western Gandaki Academy", "type": "school"}, "geometry": {"type": "Point", "coordinates": [83.9506907, 28.2905055]}}, {"type": "Feature", "properties": {"name": "Shri Krishna Ma V", "type": "school"}, "geometry": {"type": "Point", "coordinates": [83.9728761, 28.2097493]}}, {"type": "Feature", "properties": {"name": "Kundahar Basic School", "type": "school"}, "geometry": {"type": "Point", "coordinates": [84.0062082, 28.204744]}}, {"type": "Feature", "properties": {"name": "Ratna Basic School", "type": "school"}, "geometry": {"type": "Point", "coordinates": [83.977803, 28.2492782]}}, {"type": "Feature", "properties": {"name": "Pokhara Academy (Primary Level)", "type": "school"}, "geometry": {"type": "Point", "coordinates": [83.9803237, 28.263838]}}, {"type": "Feature", "properties": {"name": "Pragati English Boarding School", "type": "school"}, "geometry": {"type": "Point", "coordinates": [83.977989, 28.2649426]}}, {"type": "Feature", "properties": {"name": "New Model Academy", "type": "school"}, "geometry": {"type": "Point", "coordinates": [83.9806101, 28.2067812]}}, {"type": "Feature", "properties": {"name": "Pokhara Academy (Seondary Level)", "type": "school"}, "geometry": {"type": "Point", "coordinates": [83.9879942, 28.260954]}}, {"type": "Feature", "properties": {"name": "Rastriya Secondary School", "type": "school"}, "geometry": {"type": "Point", "coordinates": [83.9849322, 28.2418727]}}, {"type": "Feature", "properties": {"name": "Alpha Boarding School", "type": "school"}, "geometry": {"type": "Point", "coordinates": [83.9739237, 28.2625085]}}, {"type": "Feature", "properties": {"name": "Little Step Higher Secondary School", "type": "school"}, "geometry": {"type": "Point", "coordinates": [83.9899565, 28.2436868]}}, {"type": "Feature", "properties": {"name": "Bishnu Padhukaa Ma V", "type": "school"}, "geometry": {"type": "Point", "coordinates": [83.9505287, 28.2689492]}}, {"type": "Feature", "properties": {"name": "Gyanodaya Boarding School", "type": "school"}, "geometry": {"type": "Point", "coordinates": [83.9607641, 28.2131038]}}, {"type": "Feature", "properties": {"name": "Shishu Niketan Higher Secondary School", "type": "school"}, "geometry": {"type": "Point", "coordinates": [83.9734347, 28.1905921]}}, {"type": "Feature", "properties": {"name": "Balodaya Higher Secondary School", "type": "school"}, "geometry": {"type": "Point", "coordinates": [83.9676429, 28.1894818]}}, {"type": "Feature", "properties": {"name": "Shanti Deep English Boarding School", "type": "school"}, "geometry": {"type": "Point", "coordinates": [84.0266726, 28.1750969]}}, {"type": "Feature", "properties": {"name": "Great Compassion Boarding School", "type": "school"}, "geometry": {"type": "Point", "coordinates": [83.948641, 28.2305775]}}, {"type": "Feature", "properties": {"type": "yes"}, "geometry": {"type": "Point", "coordinates": [84.0738185, 28.2137541]}}, {"type": "Feature", "properties": {"name": "Rainbow Academic Homes Higher Secondary", "type": "school"}, "geometry": {"type": "Point", "coordinates": [83.9960362, 28.1938055]}}, {"type": "Feature", "properties": {"name": "Dhawalagiri Boarding School", "type": "school"}, "geometry": {"type": "Point", "coordinates": [83.9364752, 28.2804398]}}, {"type": "Feature", "properties": {"name": "Dharmasthali Basic School", "type": "school"}, "geometry": {"type": "Point", "coordinates": [83.9783281, 28.2229073]}}, {"type": "Feature", "properties": {"name": "Amar Jyoti Boarding School", "type": "school"}, "geometry": {"type": "Point", "coordinates": [83.979519, 28.2144569]}}, {"type": "Feature", "properties": {"name": "National Inventive Higher Secondary Boarding School", "type": "school"}, "geometry": {"type": "Point", "coordinates": [83.9629715, 28.2097634]}}, {"type": "Feature", "properties": {"name": "Little Step Secondary School", "type": "school"}, "geometry": {"type": "Point", "coordinates": [83.9754572, 28.2098186]}}, {"type": "Feature", "properties": {"name": "Janajyoti Ma V", "type": "school"}, "geometry": {"type": "Point", "coordinates": [84.0755898, 28.214139]}}, {"type": "Feature", "properties": {"name": "Lotus Academy", "type": "school"}, "geometry": {"type": "Point", "coordinates": [83.9894269, 28.2205264]}}, {"type": "Feature", "properties": {"name": "Nawa Prabhat Ma V", "type": "school"}, "geometry": {"type": "Point", "coordinates": [83.9918379, 28.2174496]}}, {"type": "Feature", "properties": {"name": "Devi Basic School", "type": "school"}, "geometry": {"type": "Point", "coordinates": [84.0096802, 28.2625713]}}, {"type": "Feature", "properties": {"name": "Himanchal Higher Secondary School", "type": "school"}, "geometry": {"type": "Point", "coordinates": [83.974445, 28.2017355]}}, {"type": "Feature", "properties": {"name": "Tops Higher Secondary School", "type": "school"}, "geometry": {"type": "Point", "coordinates": [83.995635, 28.2096811]}}, {"type": "Feature", "properties": {"name": "Jyoti Bhawan Basic School", "type": "school"}, "geometry": {"type": "Point", "coordinates": [83.9941418, 28.297296]}}, {"type": "Feature", "properties": {"name": "Shanti Higher Secondary School", "type": "school"}, "geometry": {"type": "Point", "coordinates": [83.9855667, 28.2848469]}}, {"type": "Feature", "properties": {"name": "Paramount Public School", "type": "school"}, "geometry": {"type": "Point", "coordinates": [83.9980743, 28.2084153]}}, {"type": "Feature", "properties": {"name": "Pokhara United Academy", "type": "school"}, "geometry": {"type": "Point", "coordinates": [84.0059305, 28.2111608]}}, {"type": "Feature", "properties": {"name": "New Galaxy Higher Secondary school", "type": "school"}, "geometry": {"type": "Point", "coordinates": [83.9906334, 28.2284439]}}, {"type": "Feature", "properties": {"name": "Sri Satya Sai English Boarding School", "type": "school"}, "geometry": {"type": "Point", "coordinates": [83.9907173, 28.23075]}}, {"type": "Feature", "properties": {"name": "Gyanubaba Higher Secondary School", "type": "school"}, "geometry": {"type": "Point", "coordinates": [83.9844055, 28.2398568]}}, {"type": "Feature", "properties": {"name": "Happy Boarding School", "type": "school"}, "geometry": {"type": "Point", "coordinates": [83.9723836, 28.2115739]}}, {"type": "Feature", "properties": {"name": "High Mount English Boarding School", "type": "school"}, "geometry": {"type": "Point", "coordinates": [83.9787624, 28.2472392]}}, {"type": "Feature", "properties": {"name": "Shri Ram Basic School", "type": "school"}, "geometry": {"type": "Point", "coordinates": [83.9794871, 28.209084]}}, {"type": "Feature", "properties": {"name": "Spiral Galaxy Higher Secondary School", "type": "school"}, "geometry": {"type": "Point", "coordinates": [83.9836918, 28.2446323]}}, {"type": "Feature", "properties": {"name": "Suryodhaya English Boarding School", "type": "school"}, "geometry": {"type": "Point", "coordinates": [83.9828849, 28.2508725]}}, {"type": "Feature", "properties": {"name": "Step By Step Higher Secondary School", "type": "school"}, "geometry": {"type": "Point", "coordinates": [83.9703109, 28.2156183]}}, {"type": "Feature", "properties": {"name": "Kantipur Academy of Science and Tecnology", "type": "school"}, "geometry": {"type": "Point", "coordinates": [84.0242362, 28.1820487]}}, {"type": "Feature", "properties": {"name": "Bhayareshwori Basic School", "type": "school"}, "geometry": {"type": "Point", "coordinates": [84.0249503, 28.1873049]}}, {"type": "Feature", "properties": {"name": "Bindyabasini Ma V", "type": "school"}, "geometry": {"type": "Point", "coordinates": [83.9798914, 28.2624804]}}, {"type": "Feature", "properties": {"name": "Saint Francis School", "type": "school"}, "geometry": {"type": "Point", "coordinates": [84.0227676, 28.1710999]}}, {"type": "Feature", "properties": {"name": "Sukraraj Bala Bhadra Ma V", "type": "school"}, "geometry": {"type": "Point", "coordinates": [84.0098577, 28.1812758]}}, {"type": "Feature", "properties": {"name": "Sahid Awasiya Ma V", "type": "school"}, "geometry": {"type": "Point", "coordinates": [84.0323999, 28.1634]}}, {"type": "Feature", "properties": {"name": "Shivapuri Basic School", "type": "school"}, "geometry": {"type": "Point", "coordinates": [83.9399608, 28.2924518]}}, {"type": "Feature", "properties": {"name": "Bharati Bhawan Ma V", "type": "school"}, "geometry": {"type": "Point", "coordinates": [83.9471273, 28.2919049]}}, {"type": "Feature", "properties": {"name": "Saraswati Adarsha Vidhyashram", "type": "school"}, "geometry": {"type": "Point", "coordinates": [83.9705041, 28.26099]}}, {"type": "Feature", "properties": {"name": "Gandaki Higher Secondary Boarding School", "type": "school"}, "geometry": {"type": "Point", "coordinates": [83.9692151, 28.2585269]}}, {"type": "Feature", "properties": {"name": "Samata Sikshya Niketan", "type": "school"}, "geometry": {"type": "Point", "coordinates": [83.9794353, 28.2261764]}}, {"type": "Feature", "properties": {"name": "Shanti Niketan School", "type": "school"}, "geometry": {"type": "Point", "coordinates": [83.9773184, 28.2214056]}}, {"type": "Feature", "properties": {"name": "Srijana Higher Secondary School", "type": "school"}, "geometry": {"type": "Point", "coordinates": [83.9783851, 28.2114238]}}, {"type": "Feature", "properties": {"name": "Gyan Ganga Academy", "type": "school"}, "geometry": {"type": "Point", "coordinates": [84.0227301, 28.1921573]}}, {"type": "Feature", "properties": {"name": "Mankamana Boarding School", "type": "school"}, "geometry": {"type": "Point", "coordinates": [83.9954393, 28.2316739]}}, {"type": "Feature", "properties": {"name": "Diamond Higher Sceondary Boarding School", "type": "school"}, "geometry": {"type": "Point", "coordinates": [84.0620289, 28.163772]}}, {"type": "Feature", "properties": {"name": "Lekhnath Memorial English Boarding School", "type": "school"}, "geometry": {"type": "Point", "coordinates": [84.0526468, 28.1695835]}}, {"type": "Feature", "properties": {"name": "Ram Jyoti Ma V", "type": "school"}, "geometry": {"type": "Point", "coordinates": [84.0342215, 28.1806152]}}, {"type": "Feature", "properties": {"name": "Sagarmatha Niketan School", "type": "school"}, "geometry": {"type": "Point", "coordinates": [83.9896058, 28.2197105]}}, {"type": "Feature", "properties": {"name": "Pokhara Public School", "type": "school"}, "geometry": {"type": "Point", "coordinates": [84.0189248, 28.1928284]}}, {"type": "Feature", "properties": {"name": "Little Angel School", "type": "school"}, "geometry": {"type": "Point", "coordinates": [83.9514315, 28.2840358]}}, {"type": "Feature", "properties": {"name": "Chandika Basic School", "type": "school"}, "geometry": {"type": "Point", "coordinates": [83.9820594, 28.2566393]}}, {"type": "Feature", "properties": {"name": "Nilgiri English Boarding School", "type": "school"}, "geometry": {"type": "Point", "coordinates": [83.9851345, 28.2193331]}}, {"type": "Feature", "properties": {"name": "Sunflower English Boarding school", "type": "school"}, "geometry": {"type": "Point", "coordinates": [83.983579, 28.2350655]}}, {"type": "Feature", "properties": {"name": "Kalika Ma V", "type": "school"}, "geometry": {"type": "Point", "coordinates": [83.9992118, 28.2012906]}}, {"type": "Feature", "properties": {"name": "Sitala Ma V", "type": "school"}, "geometry": {"type": "Point", "coordinates": [84.0013189, 28.2182199]}}, {"type": "Feature", "properties": {"name": "Mount Everest Boarding School", "type": "school"}, "geometry": {"type": "Point", "coordinates": [83.9843954, 28.2143033]}}, {"type": "Feature", "properties": {"name": "Bicramshila Buddhist Gumba", "type": "school"}, "geometry": {"type": "Point", "coordinates": [83.9566845, 28.2615176]}}, {"type": "Feature", "properties": {"name": "Riverdale Secondary School", "type": "school"}, "geometry": {"type": "Point", "coordinates": [83.9901803, 28.2827583]}}, {"type": "Feature", "properties": {"name": "Annapurna Basic School", "type": "yes"}, "geometry": {"type": "Point", "coordinates": [83.9687096, 28.2055911]}}, {"type": "Feature", "properties": {"name": "Nabin Ma V", "type": "school"}, "geometry": {"type": "Point", "coordinates": [83.9857439, 28.226762]}}, {"type": "Feature", "properties": {"name": "Nawa Dip English Boarding School", "type": "school"}, "geometry": {"type": "Point", "coordinates": [84.0052098, 28.2024429]}}, {"type": "Feature", "properties": {"name": "Baseline Academy", "type": "school"}, "geometry": {"type": "Point", "coordinates": [84.0151293, 28.205896]}}, {"type": "Feature", "properties": {"name": "Maula Islamic Samudayak Basic School", "type": "school"}, "geometry": {"type": "Point", "coordinates": [84.0099051, 28.2093929]}}, {"type": "Feature", "properties": {"name": "Balvidhya Mandir Secondary Boarding School", "type": "school"}, "geometry": {"type": "Point", "coordinates": [84.0087501, 28.2089792]}}, {"type": "Feature", "properties": {"name": "Bal Prabhat Boardiing School", "type": "school"}, "geometry": {"type": "Point", "coordinates": [83.9861695, 28.2187477]}}, {"type": "Feature", "properties": {"type": "yes"}, "geometry": {"type": "Point", "coordinates": [83.9864331, 28.2184388]}}, {"type": "Feature", "properties": {"name": "Bhawani Kalika Ma V", "type": "school"}, "geometry": {"type": "Point", "coordinates": [84.0322014, 28.1958591]}}, {"type": "Feature", "properties": {"name": "Gyan Bhumi Secondary School", "type": "school"}, "geometry": {"type": "Point", "coordinates": [83.991605, 28.231122]}}, {"type": "Feature", "properties": {"name": "Boudha Sikshya Aadhyan Kendra", "type": "yes"}, "geometry": {"type": "Point", "coordinates": [83.9948988, 28.2108462]}}, {"type": "Feature", "properties": {"name": "Well Known Academy", "type": "school"}, "geometry": {"type": "Point", "coordinates": [84.003161, 28.1841944]}}, {"type": "Feature", "properties": {"name": "Saint Mary's English Boarding School", "type": "school"}, "geometry": {"type": "Point", "coordinates": [83.9927445, 28.194576]}}, {"type": "Feature", "properties": {"name": "Lekhnath Bhibhuti English Boarding School", "type": "school"}, "geometry": {"type": "Point", "coordinates": [83.9974196, 28.2001433]}}, {"type": "Feature", "properties": {"name": "Bishow motor driving and pre-test center", "type": "driving_school"}, "geometry": {"type": "Point", "coordinates": [83.9928881, 28.1957379]}}, {"type": "Feature", "properties": {"name": "Childrens Academy", "type": "school"}, "geometry": {"type": "Point", "coordinates": [84.0121425, 28.2114406]}}, {"type": "Feature", "properties": {"name": "Good Sephard English Boarding School", "type": "school"}, "geometry": {"type": "Point", "coordinates": [84.0097224, 28.1912282]}}, {"type": "Feature", "properties": {"name": "Pal Ewam Nagyal Monastic School", "type": "school"}, "geometry": {"type": "Point", "coordinates": [83.9245685, 28.2328341]}}, {"type": "Feature", "properties": {"name": "Mertopolitan Academy", "type": "school"}, "geometry": {"type": "Point", "coordinates": [83.9989276, 28.2094842]}}, {"type": "Feature", "properties": {"name": "Chhorepatan Ma V", "type": "school"}, "geometry": {"type": "Point", "coordinates": [83.9563429, 28.1899124]}}, {"type": "Feature", "properties": {"name": "Fishtail Higher Secondary School", "type": "school"}, "geometry": {"type": "Point", "coordinates": [83.9725676, 28.1954239]}}, {"type": "Feature", "properties": {"name": "Pardi Ma V", "type": "school"}, "geometry": {"type": "Point", "coordinates": [83.9751383, 28.1976978]}}, {"type": "Feature", "properties": {"name": "Janaprakash Ma V", "type": "school"}, "geometry": {"type": "Point", "coordinates": [84.065296, 28.150841]}}, {"type": "Feature", "properties": {"name": "Dynamic Academy", "type": "school"}, "geometry": {"type": "Point", "coordinates": [83.9756889, 28.2071247]}}, {"type": "Feature", "properties": {"name": "Gorkha English Boarding School", "type": "school"}, "geometry": {"type": "Point", "coordinates": [83.984571, 28.2505579]}}, {"type": "Feature", "properties": {"name": "Pokhara Learners Academy", "type": "school"}, "geometry": {"type": "Point", "coordinates": [83.9736731, 28.2021354]}}, {"type": "Feature", "properties": {"name": "Siddha Paropakar Baudhik Gurukul Ashram", "type": "school"}, "geometry": {"type": "Point", "coordinates": [83.9915111, 28.1792866]}}, {"type": "Feature", "properties": {"name": "Anjuli English Boarding School", "type": "school"}, "geometry": {"type": "Point", "coordinates": [83.9857554, 28.2415186]}}, {"type": "Feature", "properties": {"name": "Sharaswati Basic School", "type": "school"}, "geometry": {"type": "Point", "coordinates": [84.0021392, 28.2119002]}}, {"type": "Feature", "properties": {"name": "Sainik Awasiya Mahavidyalaya", "type": "school"}, "geometry": {"type": "Point", "coordinates": [83.9951798, 28.2241707]}}, {"type": "Feature", "properties": {"name": "Kanya Secondary School", "type": "school"}, "geometry": {"type": "Point", "coordinates": [83.99108, 28.232484]}}, {"type": "Feature", "properties": {"name": "Guru Kul Vidhyasadhan", "type": "school"}, "geometry": {"type": "Point", "coordinates": [83.9880318, 28.2180592]}}, {"type": "Feature", "properties": {"name": "Siddhartha Lovedale English Boarding School", "type": "school"}, "geometry": {"type": "Point", "coordinates": [83.9902562, 28.2214148]}}, {"type": "Feature", "properties": {"name": "Akala Basic School", "type": "school"}, "geometry": {"type": "Point", "coordinates": [83.9573311, 28.27319]}}, {"type": "Feature", "properties": {"name": "Shining Star Secondary Boarding School", "type": "school"}, "geometry": {"type": "Point", "coordinates": [83.9636558, 28.2130242]}}, {"type": "Feature", "properties": {"name": "Vision Boarding School", "type": "school"}, "geometry": {"type": "Point", "coordinates": [83.9911214, 28.2014294]}}, {"type": "Feature", "properties": {"name": "Kels Academy", "type": "school"}, "geometry": {"type": "Point", "coordinates": [83.9938947, 28.2021463]}}, {"type": "Feature", "properties": {"name": "Social Public English Boarding School", "type": "school"}, "geometry": {"type": "Point", "coordinates": [83.9959464, 28.2051723]}}, {"type": "Feature", "properties": {"name": "Bethany Higher Secondary School", "type": "school"}, "geometry": {"type": "Point", "coordinates": [84.0078437, 28.2002665]}}, {"type": "Feature", "properties": {"name": "Jyotikunja English Higher Secondary School", "type": "school"}, "geometry": {"type": "Point", "coordinates": [83.9978407, 28.2029731]}}, {"type": "Feature", "properties": {"name": "Pokhara Creative Higher Secondary School", "type": "school"}, "geometry": {"type": "Point", "coordinates": [83.979832, 28.2130112]}}, {"type": "Feature", "properties": {"name": "Gyankunj Academy", "type": "school"}, "geometry": {"type": "Point", "coordinates": [83.9794352, 28.2052878]}}, {"type": "Feature", "properties": {"name": "Ratna Jyoti Higher Secondary School", "type": "school"}, "geometry": {"type": "Point", "coordinates": [83.9749123, 28.206022]}}, {"type": "Feature", "properties": {"name": "Bindabasini Ma V", "type": "school"}, "geometry": {"type": "Point", "coordinates": [83.9810198, 28.2368137]}}, {"type": "Feature", "properties": {"name": "Pascal Academy", "type": "school"}, "geometry": {"type": "Point", "coordinates": [83.9900239, 28.2444681]}}, {"type": "Feature", "properties": {"name": "Masina Basic School", "type": "school"}, "geometry": {"type": "Point", "coordinates": [84.0227871, 28.1678348]}}, {"type": "Feature", "properties": {"name": "Himalaya Boarding School", "type": "school"}, "geometry": {"type": "Point", "coordinates": [83.9805386, 28.1900218]}}, {"type": "Feature", "properties": {"name": "Golden Future H S S", "type": "school"}, "geometry": {"type": "Point", "coordinates": [83.9995533, 28.1988844]}}, {"type": "Feature", "properties": {"name": "Pokhara Multimodel Campus", "type": "school"}, "geometry": {"type": "Point", "coordinates": [83.9796004, 28.2125872]}}, {"type": "Feature", "properties": {"name": "Marigold Higher Secondary School", "type": "school"}, "geometry": {"type": "Point", "coordinates": [83.990441, 28.1996941]}}, {"type": "Feature", "properties": {"name": "Pioneer English Academy", "type": "school"}, "geometry": {"type": "Point", "coordinates": [84.00049, 28.2042162]}}, {"type": "Feature", "properties": {"name": "Shree Bal Kalyan High School", "type": "school"}, "geometry": {"type": "Point", "coordinates": [84.0105944, 28.2146394]}}, {"type": "Feature", "properties": {"name": "Mahendra Secondary School", "type": "school"}, "geometry": {"type": "Point", "coordinates": [83.9906685, 28.2198252]}}, {"type": "Feature", "properties": {"name": "Janajyoti Basic School", "type": "school"}, "geometry": {"type": "Point", "coordinates": [84.0738608, 28.2137442]}}, {"type": "Feature", "properties": {"name": "Kalika English Boarding School", "type": "school"}, "geometry": {"type": "Point", "coordinates": [84.0769562, 28.2134009]}}, {"type": "Feature", "properties": {"name": "Fewa Driving Institute", "type": "yes"}, "geometry": {"type": "Point", "coordinates": [83.9707337, 28.1938598]}}, {"type": "Feature", "properties": {"name": "Kaski Modernized Academic", "type": "school"}, "geometry": {"type": "Point", "coordinates": [84.0212378, 28.199273]}}, {"type": "Feature", "properties": {"name": "Oxford Higher Secondary School", "type": "school"}, "geometry": {"type": "Point", "coordinates": [84.0181353, 28.2151699]}}, {"type": "Feature", "properties": {"name": "Tarakunja English Boarding School", "type": "school"}, "geometry": {"type": "Point", "coordinates": [84.0251124, 28.216731]}}, {"type": "Feature", "properties": {"name": "Hill Point English Boarding School", "type": "school"}, "geometry": {"type": "Point", "coordinates": [84.0042416, 28.2167346]}}, {"type": "Feature", "properties": {"name": "Rising English Boarding School", "type": "school"}, "geometry": {"type": "Point", "coordinates": [84.0035657, 28.2172387]}}, {"type": "Feature", "properties": {"name": "Puspa Sadan Academy", "type": "school"}, "geometry": {"type": "Point", "coordinates": [84.0004122, 28.2198989]}}, {"type": "Feature", "properties": {"name": "Kanchanjangha English Boarding School", "type": "school"}, "geometry": {"type": "Point", "coordinates": [84.0003023, 28.2237982]}}, {"type": "Feature", "properties": {"name": "Shiva Shakti Ma V", "type": "school"}, "geometry": {"type": "Point", "coordinates": [83.9998312, 28.2287537]}}, {"type": "Feature", "properties": {"name": "Siddhartha English Boarding School", "type": "school"}, "geometry": {"type": "Point", "coordinates": [83.9979948, 28.2177718]}}, {"type": "Feature", "properties": {"name": "Pinnacle Academy", "type": "school"}, "geometry": {"type": "Point", "coordinates": [83.997806, 28.218423]}}, {"type": "Feature", "properties": {"name": "View Point Secondary School", "type": "school"}, "geometry": {"type": "Point", "coordinates": [83.994185, 28.184192]}}, {"type": "Feature", "properties": {"name": "Sahara Bal Basic school", "type": "school"}, "geometry": {"type": "Point", "coordinates": [83.9881199, 28.2067472]}}, {"type": "Feature", "properties": {"name": "Bal Kalyan Basic School", "type": "school"}, "geometry": {"type": "Point", "coordinates": [83.967086, 28.2540346]}}, {"type": "Feature", "properties": {"name": "Ratan Pande Ma V", "type": "school"}, "geometry": {"type": "Point", "coordinates": [84.0355111, 28.2267998]}}, {"type": "Feature", "properties": {"name": "Shimala Basic School", "type": "school"}, "geometry": {"type": "Point", "coordinates": [84.0444285, 28.227149]}}, {"type": "Feature", "properties": {"name": "Bijaya Basic School", "type": "school"}, "geometry": {"type": "Point", "coordinates": [84.0397577, 28.2478018]}}, {"type": "Feature", "properties": {"name": "Amarjyoti Basic School", "type": "school"}, "geometry": {"type": "Point", "coordinates": [84.0481387, 28.2262463]}}, {"type": "Feature", "properties": {"name": "Aarba Bijaya Ma V", "type": "school"}, "geometry": {"type": "Point", "coordinates": [84.0536945, 28.2398439]}}, {"type": "Feature", "properties": {"name": "Siddhartha Basic School", "type": "school"}, "geometry": {"type": "Point", "coordinates": [84.0381742, 28.2192865]}}, {"type": "Feature", "properties": {"name": "Sukraraj Ma V", "type": "school"}, "geometry": {"type": "Point", "coordinates": [83.9117313, 28.2060279]}}, {"type": "Feature", "properties": {"name": "Mahendra Ma V", "type": "school"}, "geometry": {"type": "Point", "coordinates": [84.0103402, 28.248162]}}, {"type": "Feature", "properties": {"name": "Bhalam Basic School", "type": "school"}, "geometry": {"type": "Point", "coordinates": [83.9935371, 28.2512429]}}, {"type": "Feature", "properties": {"name": "Mahendra Rastriya Basic School", "type": "school"}, "geometry": {"type": "Point", "coordinates": [84.009689, 28.2548215]}}, {"type": "Feature", "properties": {"name": "Birendra Basic School", "type": "school"}, "geometry": {"type": "Point", "coordinates": [83.9993027, 28.2462395]}}, {"type": "Feature", "properties": {"name": "Kahun Basic School", "type": "school"}, "geometry": {"type": "Point", "coordinates": [84.0088664, 28.2270551]}}, {"type": "Feature", "properties": {"name": "Kalika Ma V", "type": "school"}, "geometry": {"type": "Point", "coordinates": [84.0147925, 28.2321561]}}, {"type": "Feature", "properties": {"name": "Manijyoti Basic School", "type": "school"}, "geometry": {"type": "Point", "coordinates": [83.9567264, 28.2442018]}}, {"type": "Feature", "properties": {"name": "Gauri Basic School", "type": "school"}, "geometry": {"type": "Point", "coordinates": [83.9372565, 28.2054603]}}, {"type": "Feature", "properties": {"name": "Lila Basic School", "type": "school"}, "geometry": {"type": "Point", "coordinates": [83.9451589, 28.1982087]}}, {"type": "Feature", "properties": {"name": "Maheswori Ma Mv", "type": "school"}, "geometry": {"type": "Point", "coordinates": [83.9257298, 28.197314]}}, {"type": "Feature", "properties": {"name": "Pokhara Darshaniyasthal Basic School", "type": "school"}, "geometry": {"type": "Point", "coordinates": [83.9331602, 28.1890399]}}, {"type": "Feature", "properties": {"name": "Yuba Jyoti Basic School", "type": "school"}, "geometry": {"type": "Point", "coordinates": [83.9251431, 28.1952455]}}, {"type": "Feature", "properties": {"name": "Nagajuna Modern Boarding School", "type": "school"}, "geometry": {"type": "Point", "coordinates": [84.0133324, 28.2225847]}}, {"type": "Feature", "properties": {"name": "Sharada Basic School", "type": "school"}, "geometry": {"type": "Point", "coordinates": [83.9351717, 28.2549789]}}, {"type": "Feature", "properties": {"name": "Srijana Basic School", "type": "school"}, "geometry": {"type": "Point", "coordinates": [83.9794124, 28.2421968]}}, {"type": "Feature", "properties": {"name": "Amar Jyoti Basic School", "type": "school"}, "geometry": {"type": "Point", "coordinates": [83.9244859, 28.2441506]}}, {"type": "Feature", "properties": {"name": "Jana Jagriti Ma V", "type": "school"}, "geometry": {"type": "Point", "coordinates": [83.9412344, 28.2402887]}}, {"type": "Feature", "properties": {"name": "Divya Jyoti Basic School", "type": "school"}, "geometry": {"type": "Point", "coordinates": [83.9276983, 28.2805176]}}, {"type": "Feature", "properties": {"name": "Gram Prakash Basic School", "type": "school"}, "geometry": {"type": "Point", "coordinates": [83.9389335, 28.2783102]}}, {"type": "Feature", "properties": {"name": "Hemja Boarding School", "type": "school"}, "geometry": {"type": "Point", "coordinates": [83.9381923, 28.2757736]}}, {"type": "Feature", "properties": {"name": "Snow View Boarding School", "type": "school"}, "geometry": {"type": "Point", "coordinates": [83.9492119, 28.2679017]}}, {"type": "Feature", "properties": {"name": "Jana Chetana Basic School", "type": "school"}, "geometry": {"type": "Point", "coordinates": [84.0162186, 28.2559489]}}, {"type": "Feature", "properties": {"name": "Dhune Sangu English Bording School", "type": "school"}, "geometry": {"type": "Point", "coordinates": [83.9897353, 28.1775632]}}, {"type": "Feature", "properties": {"name": "Janaki Basic School", "type": "school"}, "geometry": {"type": "Point", "coordinates": [83.9910565, 28.1769521]}}, {"type": "Feature", "properties": {"name": "New Millenium Academy", "type": "school"}, "geometry": {"type": "Point", "coordinates": [83.9751349, 28.1925693]}}, {"type": "Feature", "properties": {"name": "Pokhara Kindergarden English Boarding School", "type": "school"}, "geometry": {"type": "Point", "coordinates": [83.9794207, 28.1938321]}}, {"type": "Feature", "properties": {"name": "Shanti Nikunj English School", "type": "school"}, "geometry": {"type": "Point", "coordinates": [83.9737381, 28.1937092]}}, {"type": "Feature", "properties": {"name": "Shishu Kalyan Secondary School", "type": "school"}, "geometry": {"type": "Point", "coordinates": [84.0258926, 28.1549447]}}, {"type": "Feature", "properties": {"name": "Sarswoti Tika Secondary School", "type": "school"}, "geometry": {"type": "Point", "coordinates": [84.0444673, 28.1449037]}}, {"type": "Feature", "properties": {"name": "Shree Jana Chetan Ma V", "type": "school"}, "geometry": {"type": "Point", "coordinates": [83.9990174, 28.1520265]}}, {"type": "Feature", "properties": {"name": "Phekuwako Nirmal Pokhari English Boarding School", "type": "school"}, "geometry": {"type": "Point", "coordinates": [83.9918518, 28.1563879]}}, {"type": "Feature", "properties": {"name": "Jaldevi Basic School", "type": "school"}, "geometry": {"type": "Point", "coordinates": [83.9920183, 28.1421686]}}, {"type": "Feature", "properties": {"name": "Jana Jagarti Basic School", "type": "school"}, "geometry": {"type": "Point", "coordinates": [83.9834196, 28.159007]}}, {"type": "Feature", "properties": {"name": "Ram Rudra Basic School", "type": "school"}, "geometry": {"type": "Point", "coordinates": [83.9733216, 28.1607758]}}, {"type": "Feature", "properties": {"name": "Shree Hill Side English Boarding School", "type": "school"}, "geometry": {"type": "Point", "coordinates": [83.9883566, 28.1556318]}}, {"type": "Feature", "properties": {"name": "Ramadi Basic School", "type": "school"}, "geometry": {"type": "Point", "coordinates": [83.936886, 28.1746593]}}, {"type": "Feature", "properties": {"name": "Paschimanchal Secondary School", "type": "school"}, "geometry": {"type": "Point", "coordinates": [83.9899286, 28.2266047]}}, {"type": "Feature", "properties": {"name": "Yuwabarsa Basic School", "type": "school"}, "geometry": {"type": "Point", "coordinates": [83.9498149, 28.1834854]}}, {"type": "Feature", "properties": {"name": "New Social English School", "type": "school"}, "geometry": {"type": "Point", "coordinates": [83.9575045, 28.1680679]}}, {"type": "Feature", "properties": {"name": "Bayeli Basic School", "type": "school"}, "geometry": {"type": "Point", "coordinates": [83.9569465, 28.1725189]}}, {"type": "Feature", "properties": {"name": "Himalaya Basic School", "type": "school"}, "geometry": {"type": "Point", "coordinates": [83.9499256, 28.1602281]}}, {"type": "Feature", "properties": {"name": "Bhabisya Nirman Ma V", "type": "school"}, "geometry": {"type": "Point", "coordinates": [83.9540784, 28.1565155]}}, {"type": "Feature", "properties": {"name": "Sai Ratna Academy", "type": "school"}, "geometry": {"type": "Point", "coordinates": [83.9526184, 28.1568979]}}, {"type": "Feature", "properties": {"name": "Bakrek Basic School", "type": "school"}, "geometry": {"type": "Point", "coordinates": [83.9396003, 28.1413168]}}, {"type": "Feature", "properties": {"name": "Ex Army English Boarding School", "type": "school"}, "geometry": {"type": "Point", "coordinates": [83.961377, 28.1867883]}}, {"type": "Feature", "properties": {"name": "OM Academy", "type": "school"}, "geometry": {"type": "Point", "coordinates": [83.9526811, 28.1907234]}}, {"type": "Feature", "properties": {"name": "Pokhara Spiral Galaxy Academy", "type": "school"}, "geometry": {"type": "Point", "coordinates": [83.9650196, 28.1886155]}}, {"type": "Feature", "properties": {"name": "LA Higher Secondary School", "type": "school"}, "geometry": {"type": "Point", "coordinates": [83.9864166, 28.2144566]}}, {"type": "Feature", "properties": {"name": "Gandaki Education Foundation", "type": "school"}, "geometry": {"type": "Point", "coordinates": [83.9908581, 28.2146026]}}, {"type": "Feature", "properties": {"name": "Bidhya Niketan English Bording School", "type": "school"}, "geometry": {"type": "Point", "coordinates": [83.9747554, 28.1833349]}}, {"type": "Feature", "properties": {"name": "West Point Children Academy", "type": "school"}, "geometry": {"type": "Point", "coordinates": [83.9697652, 28.1861146]}}, {"type": "Feature", "properties": {"name": "Little Bells School", "type": "school"}, "geometry": {"type": "Point", "coordinates": [83.9790187, 28.2263412]}}, {"type": "Feature", "properties": {"name": "Phewa Public Secondary Higher School", "type": "school"}, "geometry": {"type": "Point", "coordinates": [83.9830267, 28.228595]}}, {"type": "Feature", "properties": {"name": "Shree Maharsi Gurukul Bed Bidhyalaye", "type": "school"}, "geometry": {"type": "Point", "coordinates": [83.9924498, 28.2308753]}}, {"type": "Feature", "properties": {"name": "Maharsi Gurukul Bindhyabasani", "type": "school"}, "geometry": {"type": "Point", "coordinates": [83.9836672, 28.2376438]}}, {"type": "Feature", "properties": {"name": "Pokhara Combridge English Boarding School", "type": "school"}, "geometry": {"type": "Point", "coordinates": [83.9652842, 28.2099107]}}, {"type": "Feature", "properties": {"name": "Goodwill Activity School", "type": "school"}, "geometry": {"type": "Point", "coordinates": [83.9639783, 28.2101518]}}, {"type": "Feature", "properties": {"name": "Emmanuel English Boarding School", "type": "school"}, "geometry": {"type": "Point", "coordinates": [83.9815502, 28.2054397]}}, {"type": "Feature", "properties": {"name": "Holi Angel School", "type": "school"}, "geometry": {"type": "Point", "coordinates": [83.986365, 28.2047059]}}, {"type": "Feature", "properties": {"name": "Mount Heaven English Boarding school", "type": "school"}, "geometry": {"type": "Point", "coordinates": [83.9814336, 28.1976087]}}, {"type": "Feature", "properties": {"name": "National Creation Academy", "type": "school"}, "geometry": {"type": "Point", "coordinates": [83.9804462, 28.2041662]}}, {"type": "Feature", "properties": {"name": "Wisdom English Boarding School", "type": "school"}, "geometry": {"type": "Point", "coordinates": [83.96736, 28.2109299]}}, {"type": "Feature", "properties": {"name": "Peace Zone Academy", "type": "school"}, "geometry": {"type": "Point", "coordinates": [83.9806891, 28.2146878]}}, {"type": "Feature", "properties": {"name": "Maitree Children's Academy", "type": "school"}, "geometry": {"type": "Point", "coordinates": [83.9908791, 28.2204916]}}, {"type": "Feature", "properties": {"name": "Lekhnath Basic School", "type": "school"}, "geometry": {"type": "Point", "coordinates": [84.0777166, 28.1940992]}}, {"type": "Feature", "properties": {"name": "Chisakhola Bed Bidhya Ashram", "type": "school"}, "geometry": {"type": "Point", "coordinates": [83.973686, 28.233978]}}, {"type": "Feature", "properties": {"name": "Gyanjyoti Ma V", "type": "school"}, "geometry": {"type": "Point", "coordinates": [83.9859591, 28.2904561]}}, {"type": "Feature", "properties": {"name": "Pemachal Shakya Monastic Basic School", "type": "school"}, "geometry": {"type": "Point", "coordinates": [83.9611189, 28.2569788]}}, {"type": "Feature", "properties": {"name": "Bhadrakali Campus Ground", "type": "school"}, "geometry": {"type": "Point", "coordinates": [84.011834, 28.2136331]}}, {"type": "Feature", "properties": {"name": "Sanskrti Ma V", "type": "school"}, "geometry": {"type": "Point", "coordinates": [83.9903823, 28.2433574]}}, {"type": "Feature", "properties": {"name": "Birendra Memorial English School", "type": "school"}, "geometry": {"type": "Point", "coordinates": [83.9749696, 28.2256548]}}, {"type": "Feature", "properties": {"name": "Janapriya Ma V", "type": "school"}, "geometry": {"type": "Point", "coordinates": [83.9767395, 28.2072499]}}, {"type": "Feature", "properties": {"name": "Harvard Academy", "type": "school"}, "geometry": {"type": "Point", "coordinates": [83.9974472, 28.1927297]}}, {"type": "Feature", "properties": {"name": "Disneyland Academy", "type": "school"}, "geometry": {"type": "Point", "coordinates": [83.9703155, 28.2083363]}}, {"type": "Feature", "properties": {"name": "Bal Jyoti Basic School", "type": "school"}, "geometry": {"type": "Point", "coordinates": [83.9407691, 28.1531919]}}, {"type": "Feature", "properties": {"name": "Laxmi Ma V", "type": "school"}, "geometry": {"type": "Point", "coordinates": [84.0461205, 28.1803529]}}, {"type": "Feature", "properties": {"name": "Mount Valley Collage", "type": "college"}, "geometry": {"type": "Point", "coordinates": [83.9885516, 28.2383658]}}, {"type": "Feature", "properties": {"name": "Heritage College", "type": "college"}, "geometry": {"type": "Point", "coordinates": [83.9788319, 28.2122835]}}, {"type": "Feature", "properties": {"name": "Cosmos International College", "type": "college"}, "geometry": {"type": "Point", "coordinates": [83.9905121, 28.2260661]}}, {"type": "Feature", "properties": {"name": "InfoMax College", "type": "college"}, "geometry": {"type": "Point", "coordinates": [84.0021435, 28.2141475]}}, {"type": "Feature", "properties": {"name": "Mahendra Multiple Campus", "type": "college"}, "geometry": {"type": "Point", "coordinates": [83.9905129, 28.2196235]}}, {"type": "Feature", "properties": {"name": "Bhadrakali Multiple Campus", "type": "college"}, "geometry": {"type": "Point", "coordinates": [84.0122044, 28.2137445]}}, {"type": "Feature", "properties": {"name": "Laxmi Adarsha College", "type": "college"}, "geometry": {"type": "Point", "coordinates": [84.0634299, 28.1712576]}}, {"type": "Feature", "properties": {"name": "Prakritik Swrot Baybasthapan College", "type": "college"}, "geometry": {"type": "Point", "coordinates": [83.9470214, 28.2917458]}}, {"type": "Feature", "properties": {"name": "Kalika Multiple Campus", "type": "college"}, "geometry": {"type": "Point", "coordinates": [83.9983776, 28.2013281]}}, {"type": "Feature", "properties": {"type": "college"}, "geometry": {"type": "Point", "coordinates": [83.9842966, 28.2150831]}}, {"type": "Feature", "properties": {"name": "College of Natural Resource Management", "type": "college"}, "geometry": {"type": "Point", "coordinates": [83.9468775, 28.2917233]}}, {"type": "Feature", "properties": {"type": "college"}, "geometry": {"type": "Point", "coordinates": [84.0119121, 28.2136119]}}, {"type": "Feature", "properties": {"type": "college"}, "geometry": {"type": "Point", "coordinates": [84.0117675, 28.2137193]}}, {"type": "Feature", "properties": {"type": "college"}, "geometry": {"type": "Point", "coordinates": [84.0001187, 28.2148905]}}, {"type": "Feature", "properties": {"type": "college"}, "geometry": {"type": "Point", "coordinates": [83.9908532, 28.1888934]}}, {"type": "Feature", "properties": {"type": "college"}, "geometry": {"type": "Point", "coordinates": [84.0113495, 28.214294]}}, {"type": "Feature", "properties": {"name": "Pokhara University Block B", "type": "college"}, "geometry": {"type": "Point", "coordinates": [84.0305013, 28.1872679]}}, {"type": "Feature", "properties": {"type": "college"}, "geometry": {"type": "Point", "coordinates": [83.9854473, 28.2221602]}}, {"type": "Feature", "properties": {"name": "SOS Hermann Gmeiner Sshool", "type": "college"}, "geometry": {"type": "Point", "coordinates": [83.9784586, 28.1893572]}}, {"type": "Feature", "properties": {"name": "Institute of Forestry", "type": "college"}, "geometry": {"type": "Point", "coordinates": [83.9927436, 28.1875036]}}, {"type": "Feature", "properties": {"name": "Pokhara Lincoln International College", "type": "yes"}, "geometry": {"type": "Point", "coordinates": [83.9756269, 28.2101807]}}, {"type": "Feature", "properties": {"name": "Prithivi Narayan Campus", "type": "university"}, "geometry": {"type": "Point", "coordinates": [83.9912114, 28.2400037]}}, {"type": "Feature", "properties": {"name": "\u092a\u0936\u094d\u200d\u091a\u093f\u092e\u093e\u091e\u094d\u200d\u091a\u0932 \u0915\u094d\u092f\u093e\u092e\u094d\u092a\u0938", "type": "university"}, "geometry": {"type": "Point", "coordinates": [83.9759583, 28.2542509]}}, {"type": "Feature", "properties": {"name": "Janapriya Multiple college", "type": "college"}, "geometry": {"type": "Point", "coordinates": [83.9785753, 28.2033965]}}, {"type": "Feature", "properties": {"name": "PCM College", "type": "college"}, "geometry": {"type": "Point", "coordinates": [83.9905528, 28.2287828]}}, {"type": "Feature", "properties": {"name": "Janapriya Multiple College(BBA Building)", "type": "yes"}, "geometry": {"type": "Point", "coordinates": [83.9790298, 28.2023803]}}, {"type": "Feature", "properties": {"name": "Gandaki College of Engineering And Sciences", "type": "yes"}, "geometry": {"type": "Point", "coordinates": [83.9704988, 28.2589676]}}, {"type": "Feature", "properties": {"name": "Pokhara Nursing College", "type": "college"}, "geometry": {"type": "Point", "coordinates": [83.9988517, 28.2145491]}}, {"type": "Feature", "properties": {"name": "Plus 2 building", "type": "yes"}, "geometry": {"type": "Point", "coordinates": [83.9940268, 28.2239571]}}, {"type": "Feature", "properties": {"name": "Kanya Campus", "type": "college"}, "geometry": {"type": "Point", "coordinates": [83.9911336, 28.2319327]}}, {"type": "Feature", "properties": {"name": "LA GRANDEE Int'l College", "type": "college"}, "geometry": {"type": "Point", "coordinates": [83.9761524, 28.2066839]}}, {"type": "Feature", "properties": {"name": "Vindabasini Higher Secondary School", "type": "college"}, "geometry": {"type": "Point", "coordinates": [83.9793765, 28.263491]}}, {"type": "Feature", "properties": {"name": "Nepal Tourism & Hotel Management College", "type": "college"}, "geometry": {"type": "Point", "coordinates": [84.0210074, 28.1715494]}}, {"type": "Feature", "properties": {"name": "Soch College of IT", "type": "yes"}, "geometry": {"type": "Point", "coordinates": [83.9976053, 28.2219865]}}, {"type": "Feature", "properties": {"name": "Pokhara Engineering College", "type": "college"}, "geometry": {"type": "Point", "coordinates": [83.9772978, 28.210893]}}, {"type": "Feature", "properties": {"name": "Pokhara Engineering College", "type": "college"}, "geometry": {"type": "Point", "coordinates": [83.9767141, 28.2110287]}}, {"type": "Feature", "properties": {"name": "Sagarmatha Higher Secondary School", "type": "college"}, "geometry": {"type": "Point", "coordinates": [83.9891833, 28.2199865]}}, {"type": "Feature", "properties": {"name": "Kantipur Tourism Hotel Management College", "type": "yes"}, "geometry": {"type": "Point", "coordinates": [83.9856863, 28.2220129]}}, {"type": "Feature", "properties": {"name": "Shiva Shakti Campus", "type": "yes"}, "geometry": {"type": "Point", "coordinates": [83.9997542, 28.2292798]}}, {"type": "Feature", "properties": {"name": "Pokhara Higher Secondary School", "type": "college"}, "geometry": {"type": "Point", "coordinates": [83.988587, 28.2383447]}}, {"type": "Feature", "properties": {"name": "Gupteshwar Mahadev Multiple Campus", "type": "college"}, "geometry": {"type": "Point", "coordinates": [83.9578102, 28.1888935]}}, {"type": "Feature", "properties": {"name": "Shree Janaprakash Bahumukhi Campus", "type": "college"}, "geometry": {"type": "Point", "coordinates": [84.0658725, 28.15058]}}, {"type": "Feature", "properties": {"name": "Karunanidhi Education Foundation(KEF) Secondary School", "type": "college"}, "geometry": {"type": "Point", "coordinates": [83.9847204, 28.2443903]}}, {"type": "Feature", "properties": {"name": "Pokhara Bigyan Tatha Prabidhi Campus", "type": "college"}, "geometry": {"type": "Point", "coordinates": [83.9895262, 28.2181576]}}, {"type": "Feature", "properties": {"name": "Mount Annapurna Campus", "type": "college"}, "geometry": {"type": "Point", "coordinates": [83.995823, 28.2343341]}}, {"type": "Feature", "properties": {"name": "Novel Academy", "type": "college"}, "geometry": {"type": "Point", "coordinates": [83.9839894, 28.2134553]}}, {"type": "Feature", "properties": {"name": "Nepal Tourism And Hotel Management Collage", "type": "college"}, "geometry": {"type": "Point", "coordinates": [83.9880297, 28.2263461]}}, {"type": "Feature", "properties": {"name": "Kalika College", "type": "college"}, "geometry": {"type": "Point", "coordinates": [84.003293, 28.1931364]}}, {"type": "Feature", "properties": {"name": "Gaurishankar Multiple Campus", "type": "college"}, "geometry": {"type": "Point", "coordinates": [83.9342257, 28.2847729]}}, {"type": "Feature", "properties": {"name": "Gupteshwar Mahadev Multiple Campus", "type": "college"}, "geometry": {"type": "Point", "coordinates": [83.9605022, 28.1912625]}}, {"type": "Feature", "properties": {"name": "Gandaki Medical Collage", "type": "college"}, "geometry": {"type": "Point", "coordinates": [84.0430953, 28.1709287]}}, {"type": "Feature", "properties": {"name": "Fab School Of Hotel Management", "type": "college"}, "geometry": {"type": "Point", "coordinates": [83.9371977, 28.1878182]}}, {"type": "Feature", "properties": {"name": "Pokhara Technical School", "type": "college"}, "geometry": {"type": "Point", "coordinates": [84.0011657, 28.2220544]}}, {"type": "Feature", "properties": {"name": "Manipal Teaching Hospital", "type": "yes"}, "geometry": {"type": "Point", "coordinates": [83.9974815, 28.236043]}}, {"type": "Feature", "properties": {"name": "College of Natural Resource Management (CNRM)", "type": "university"}, "geometry": {"type": "Point", "coordinates": [83.9490578, 28.2867563]}}, {"type": "Feature", "properties": {"name": "IOF Academic Building", "type": "university"}, "geometry": {"type": "Point", "coordinates": [83.9922406, 28.187999]}}, {"type": "Feature", "properties": {"type": "yes"}, "geometry": {"type": "Point", "coordinates": [84.01746, 28.1868303]}}, {"type": "Feature", "properties": {"name": "Fire Brigade", "type": "fire_station"}, "geometry": {"type": "Point", "coordinates": [83.9904759, 28.2100119]}}, {"type": "Feature", "properties": {"name": "Tourist Police Post", "type": "police"}, "geometry": {"type": "Point", "coordinates": [83.9573545, 28.2117305]}}, {"type": "Feature", "properties": {"name": "Tourist Police Sub-Section, Baidam", "type": "police"}, "geometry": {"type": "Point", "coordinates": [83.9695651, 28.1992872]}}, {"type": "Feature", "properties": {"name": "Ilaka Prahari Karyalaya, Sisuwa", "type": "police"}, "geometry": {"type": "Point", "coordinates": [84.0535176, 28.1725723]}}, {"type": "Feature", "properties": {"name": "Temporary Police Station, Nadipur", "type": "police"}, "geometry": {"type": "Point", "coordinates": [83.9905489, 28.2334287]}}, {"type": "Feature", "properties": {"name": "Samudayak Sewa Kendra, Prithivi Chowk", "type": "police"}, "geometry": {"type": "Point", "coordinates": [83.9877959, 28.209592]}}]}